name,address,Latitude,Longitude,area,people
삼일,"서울 강남구 헌릉로 736, (세곡동, 삼일자동차운전학원)",37.4669,127.12,13586,578
창동,"서울 도봉구 도봉로136다길 4, (창동, 창동운전전문학원)",37.6599,127.043,17914,416
녹천,"서울 노원구 마들로5길 91, (월계동, 녹천자동차운전학원)",37.6429,127.051,8232,630
사당,"서울 서초구 과천대로 904-6, (방배동, 사당자동차운전면허학원)",37.4716,126.984,11013,640
서울,"서울 강서구 남부순환로 222, (외발산동, 서울자동차학원)",37.546,126.82,10491,792
온수역,"서울 구로구 부일로1가길 18-44, (온수동)",37.4929,126.818,8383,432
중랑,"서울 중랑구 상봉로 117, (상봉동, 상봉시외버스터미널)",37.5965,127.092,6905,416
양재,"서울 서초구 남부순환로342길 62-26, (양재동, 양재자동차운전학원)",37.4841,127.034,8389,476
신도림,"서울 구로구 신도림로19길 68, (신도림동, 신도림자동차전문학원)",37.5128,126.882,17195,1024
남영,"부산 사하구 을숙도대로 709(신평동)",35.0857,128.982,8490,294
대우,"부산 사상구 학감대로192번길 1, (학장동, 대우자동차학원)",35.1487,128.99,8346,126
서부산,"부산 사하구 낙동대로563번안길 2, (하단동)",35.113,128.962,6923,182
기장아세아,"부산 기장군 정관면 곰내길 603-33, (기장아세아운전학원)",35.3172,129.17,6715,154
영도,"부산 영도구 조내기로 68, (청학동)",35.0859,129.066,6806,98
현대,"부산 금정구 청룡예전로 16, (청룡동)",35.2747,129.092,7579,168
쌍용,"부산 영도구 와치로 83, (청학동, 쌍용자동차학원)",35.0864,129.061,6828,72
흥국,"부산 해운대구 양운로37번길 28, (중동)",35.1657,129.175,8409,98
대성,"부산 사상구 사상로367번길 42, (덕포동, 대성자동차학원)",35.178,128.982,6637,182
수영,"부산 수영구 좌수영로210번길 24, (망미동, 수영자동차학원)",35.1838,129.116,9963,500
동일,"부산 동래구 수안로 58, (수안동, 동일자동차운전전문학원)",35.1999,129.085,7555,252
서면,"부산 부산진구 진남로356번길 56-11, (전포동)",35.1588,129.073,6885,255
금사,"부산 금정구 공단서로8번길 49, (금사동, 금사자동차운전전문학원)",35.2162,129.113,6700,120
명진,"부산 해운대구 센텀남대로 20, (우동)",35.1653,129.13,11454,176
영동,"부산 부산진구 백양관문로 60, (당감동)",35.1647,129.03,14390,322
학장,"부산 사상구 장인로 59, (학장동)",35.1427,128.976,11187,176
동호,"부산 부산진구 황령대로17번길 30, (범천동)",35.1493,129.061,6713,224
구포북부,"부산 북구 구남로15번길 25, (구포동, 북부자동차학원)",35.1947,128.99,6661,154
(주)성당,"대구 달서구 와룡로33길 51, (감삼동)",35.8472,128.531,7114,624
(주)대경,"대구 수성구 달구벌대로659길 31, (사월동)",35.8378,128.718,7178,126
고려,"대구 달서구 상화로 116, (대곡동)",35.8082,128.527,12914,780
서대구,"대구 서구 이현 490",35.869,128.544,6744,432
(주)청구,"대구 북구 검단로 166, (검단동)",35.9097,128.624,8972,425
남대구,"대구 달성군 현풍면 비슬로 738",35.703,128.44,15360,214
(주)안전,"대구 북구 복현로8길 35, (복현동)",35.8958,128.626,8817,570
푸른,"대구 달성군 다사읍 서재로12길 53, (성서푸른자동차학원)",35.8657,128.492,16272,248
삼우동서,"대구 수성구 달구벌대로 3289-7, (사월동)",35.843,128.725,8741,476
동양,"대구 북구 매천로2길 58-52, (팔달동)",35.896,128.546,20246,728
일신,"인천 부평구 무네미로 521, (구산동)",37.4822,126.752,7779,437
주신,"인천 남구 노적산로 66-36, (학익동, 주신자동차운전학원)",37.4398,126.656,14060,620
인천,"인천 남구 매소홀로271번길 7, (학익동, 인성산업㈜)",37.4451,126.653,8252,200
기아,"인천 중구 서해대로 261, (항동7가)",37.451,126.625,13897,340
효성,"인천 계양구 새풀로8번길 14, (효성동)",37.5243,126.701,11219,592
대우,"인천 서구 호두산로 18, (경서동)",37.5452,126.648,11107,532
시엘,"인천 남구 소성로 34, (용현동, 씨엘자동차운전학원)",37.4464,126.653,11434,525
한성,"인천 서구 중봉대로 266, (석남동, 1동)",37.503,126.649,12549,742
강화,"인천 강화군 선원면 강화동로 984, (강화자동차학원)",37.7184,126.476,10197,70
연세,"인천 계양구 장제로 988, (박촌동)",37.5555,126.747,8833,258
오렌지,"인천 중구 서해대로 272, (신흥동3가, 오렌지자동차운전전문학원)",37.4514,126.626,11880,432
동아,"인천 남동구 청능대로534번길 39, (고잔동)",37.3983,126.721,8841,908
거성,"인천 계양구 봉오대로894번길 33-12, (서운동)",37.5272,126.749,10650,833
성도,"인천 계양구 아나지로 480, (서운동)",37.5248,126.746,9914,246
신진,"인천 계양구 아나지로551번길 15-1, (서운동)",37.527,126.753,9812,252
한양,"인천 계양구 장제로 988, (박촌동)",37.5555,126.747,11451,398
인기,"인천 남동구 논현고잔로88번길 19, (고잔동)",37.3906,126.713,7099,748
금호,"광주 광산구 임방울대로 612, (도천동)",35.2144,126.819,17882,152
신진,"광주 동구 소태길 78, (소태동)",35.1202,126.941,9284,58
(주)기아,"광주 광산구 하남대로 127-30, (흑석동)",35.1818,126.803,6726,90
(주)제일,"광주 광산구 풍영정길 241-17, (신창동)",35.1885,126.856,7140,206
양동상무,"광주 광산구 대산로 275, (양동)",35.1478,126.659,38160,92
한국,"광주 남구 서문대로 541, (송하동, 한국자동차학원)",35.1111,126.895,7438,160
대우,"광주 광산구 하남지실길 46, (산정동)",35.1674,126.798,8287,83
용성,"광주 광산구 양동길 50-8, (양동)",35.1541,126.661,15594,186
일곡금호,"광주 북구 모룡대길 26, (일곡동)",35.2174,126.898,12483,166
OK,"광주 남구 송암로130번길 7, (송하동, ok자동차운전학원)",35.116,126.87,22008,177
(주)영진,"광주 광산구 목련로 372-3, (신가동)",35.1816,126.834,9000,264
대성,"광주 북구 동운로32번길 20, (동림동)",35.1778,126.857,8618,211
상무,"광주 서구 하남대로550번길 19-27, (동천동, 상무대학직업전문학교(운전학원))",35.172,126.855,9185,224
문화,"대전 동구 용운로151번길 85, (용운동, 문화자동차전문학원)",36.3315,127.46,7533,182
삼성,"대전 서구 구봉로 456, (정림동)",36.3011,127.369,17194,336
(주)향우,"대전 서구 변동로 36, (변동, 향우자동차학원)",36.326,127.377,6619,288
(주)흥일,"대전 동구 산서로1660번길 24, (대별동, 흥일자동차운전전문학원)",36.2886,127.462,12734,224
대성,"대전 중구 유등천동로 792, (중촌동)",36.3478,127.405,9575,196
신탄,"대전 대덕구 신탄진로738번길 121, (신탄진동, 신탄진자동차운전전문학원)",36.45,127.428,8676,384
(주)효성,"대전 서구 벌곡로1384번길 38, (가수원동)",36.3035,127.357,9360,308
신진,"울산 울주군 웅촌면 웅촌로 601",35.4807,129.218,9208,322
경남,"울산 남구 처용로 305, (부곡동, 경남자동차학원)",35.4949,129.343,9545,128
신삼성,"울산 남구 꽃대나리로 66, (야음동)",35.533,129.337,17301,629
신정,"울산 남구 온산로 804, (두왕동, 신정자동차학원)",35.4981,129.307,8081,240
호계,"울산 북구 산업로 1450, (신천동, 호계자동차학원)",35.6363,129.346,6909,168
언양,"울산 울주 언양 210",35.5694,129.126,9622,168
울산,"울산 북구 효성로 48, (효문동, 울산자동차학원)",35.562,129.37,9077,612
조치원문화,"세종시 조치원읍 새내로 223",36.6111,127.295,169,0
신관,"세종시 장군면 장기초교길 76-15",36.4927,127.212,210,0
세종시현대,"세종시 전동면 하노장5길 2",36.6524,127.27,196,0
안양,"경기 안양시 만안구 안양로 599, (석수동, 안양자동차운전전문학원)",37.4223,126.906,6546,255
수원현대,"경기 수원시 영통구 중부대로 452, (원천동)",37.2682,127.065,10793,280
신삼성,"경기 오산 내삼미 275-1",37.1498,127.077,25850,210
평택삼성,"경기 평택시 노루댕이1길 18-5, (장당동)",37.0444,127.064,11547,176
용인신갈,"경기 용인시 기흥구 백남준로 28-13, (상갈동, 뉴SK운전전문학원)",37.2687,127.114,15059,128
안성,"경기 안성시 대덕면 안성맞춤대로 1694-12",37.0615,127.257,14926,144
송탄역,"경기도 평택시 목천로 72-17, (신장동)",37.086,127.054,9821,56
이천,"경기 이천시 부발읍 황무로1605번길 109-73, (이천자동차운전전문학원)",37.2749,127.52,8268,56
서부,"경기 김포 양촌 석모 892-3",37.6842,126.569,9880,126
중앙,"경기 평택시 울성길 35 (신대동)",37.0039,127.072,7364,56
장호원,"경기 이천시 장호원읍 장여로 229-33, (장호원자동차학원)",37.1375,127.625,9661,56
뉴신진,"경기 여주군 여주읍 여주남로 236, (뉴신진자동차운전전문학원)",37.269,127.607,9074,56
단원,"경기 안산시 단원구 대선로 40-5, (대부북동, 안산자동차운전전문학원)",37.2674,126.567,14439,112
신동아,"경기 평택시 서탄면 발안로 927",37.1256,127.005,150514,135
동양,"경기 이천시 부발읍 중부대로 1732-3",37.288,127.498,7300,84
안성신진,"경기 안성시 중리길 30, (중리동, 신진자동차학원)",36.9863,127.272,7962,56
수원역,"경기 수원시 권선구 평동로 110, (평동)",37.2604,126.996,9589,84
신분당,"경기 용인시 처인구 모현면 오산로 13-64, (용인신분당자동차운전전문학원)",37.3331,127.162,9953,128
한강,"경기 김포시 통진읍 율마로300번길 153",37.6815,126.604,10131,192
아시아,"경기 화성시 경기대로 979, (병점동)",37.203,127.038,8610,78
수지풍덕,"경기 용인시 수지구 수풍로37번길 56, (풍덕천동)",37.3309,127.086,9485,150
모란,"경기 광주시 절골길 83, (장지동, 모란자동차운전전문학원)",37.4053,127.23,13610,272
용인,"경기 용인시 처인구 양지면 주북로 122",37.2476,127.245,6708,64
동부,"경기 광주시 오포읍 포은대로 332",37.3588,127.228,14008,32
수원원천,"경기 수원시 영통구 중부대로462번길 23, (원천동, 원천자동차운전학원)",37.2676,127.065,6909,128
한일,"경기 화성시 양감면 늠말길 3-5",37.1204,126.994,NULL,NULL
신현대,"경기 의왕시 경수대로 321, (오전동)",37.3543,126.967,19693,180
e삼성,"경기 용인 처인 남동 (e삼성자동차운전전문학원)",37.2243,127.212,12035,64
뉴삼성,"경기 수원시 권선구 매송고색로506번길 18, (오목천동)",37.2435,126.961,6814,105
화성향남,"경기 화성시 우정읍 3.1만세로 199-17",37.0912,126.829,18144,150
광원,"경기 양평군 양평읍 중앙로 244-26, (광원자동차운전전문학원)",37.489,127.515,6641,84
대동,"경기 평택 팽성 송화 220",36.9543,127.05,7139,126
서울광명,"경기 광명시 안현로 81, (하안동, 서울광명자동차운전전문학원)",37.4685,126.88,15967,425
공도삼성,"경기도 안성시 공도읍 봉기길 87",37.0002,127.187,9058,140
광주제일,"경기 광주시 곤지암읍 평촌길11번길 48, (광주제일자동차운전전문학원)",37.3543,127.333,9918,144
신진중동,"경기 부천시 원미구 평천로 651, (약대동, 신진중동자동차운전전문학원)",37.5153,126.775,108310,165
국제,"경기 광주시 오포읍 신현로 55-10",37.3617,127.153,8655,128
상록수,"경기 화성시 비봉면 하저자안로 207",37.1966,126.875,14648,192
유환,"경기 군포시 경수대로 453, (당정동, 유환자동차운전전문학원)",37.363,126.959,13120,150
(주)부천,"경기 부천시 오정구 성오로 157, (오정동, 부천자동차운전전문학원)",37.5266,126.797,6657,224
명학,"경기 안양시 만안구 덕천로48번길 71, (안양동, 명학자동차운전전문학원)",37.3868,126.94,21795,180
김포,"경기 김포시 양촌읍 김포대로 1682",37.6662,126.654,8781,144
e현대,"경기 시흥시 서해안로 584-1, (정왕동, e현대자동차운전전문학원)",37.3706,126.738,9995,160
성남,"경기 광주시 장지9길 140, (장지동, 성남자동차운전전문학원)",37.405,127.241,6741,90
뉴현대,"경기 안산시 단원구 영전로 76, (대부동동, 시화자동차운전전문학)",37.2513,126.597,10244,112
(주)하남21C,"경기 광주시 회안대로 982, (송정동, 하남21c자동차운전전문학원)",37.4323,127.263,12891,140
(주)안산대일,"경기 안산시 단원구 원포공원로 45, (초지동, 안산대일자동차운전전문학원)",37.3027,126.809,9552,168
이천제일,"경기 이천시 신둔면 원적로512번길 256-23, (이천제일자동차운전전문학원)",37.3125,127.451,11467,160
카카오,NULL,NULL,NULL,NULL,NULL
한빛,"경기 시흥시 봉화로 49, (정왕동, 한빛자동차운전전문학원)",37.3671,126.74,8647,169
평택안중,"경기도 평택시 안중읍 서동대로 1673-56",36.9936,126.929,9765,96
동일,"경기 남양주시 경춘로 679-14, (일패동, 동일자동차학원)",37.623,127.181,18115,308
신광,"경기 동두천시 벌마들로40번길 24-9, (상패동)",37.9036,127.04,21363,126
양원,"경기 남양주시 진접읍 경복대로샘말길 35-2",37.7155,127.21,16104,196
한미,"경기 양주시 삼숭로129번길 11, (삼숭동)",37.8032,127.099,18795,256
강북삼성,"경기 양주시 백석읍 꿈나무로 93",37.7986,126.995,6790,96
우리,"경기 가평군 가평읍 태봉두밀로 34-71, (우리자동차학원)",37.8047,127.487,10036,112
명문,"경기 고양시 일산서구 탄중로275번길 52-35, (탄현동)",37.695,126.776,12346,272
엘씨,"경기 파주시 문산읍 우계로457번길 21, (LC자동차운전전문학원)",37.858,126.792,10037,56
신일,"경기 고양시 일산동구 성현로268번길 93, (성석동)",37.7016,126.814,9829,150
올리브,"경기 파주시 탄현면 장릉로 5-23, (올리브운전전문학원)",37.7726,126.717,14212,280
뉴대성,"경기도 고양시 일산동구 장대길 160-38, (장항동)",37.6431,126.762,9900,196
뉴강남,"경기도 가평군 설악면 신천중앙로28번길 3-132",37.6674,127.494,9563,56
한수,"경기도 파주시 교하로 507, (동패동, (주)한주자동차운전전문학원)",37.7257,126.697,9006,126
신원,"경기 고양시 일산서구 덕산로 167, (가좌동)",37.6945,126.72,13394,140
하예서부,"경기 파주시 파주읍 학당말길 141, (하예서부자동차운전전문학원)",37.839,126.82,7066,112
정다운파주,"경기 파주시 월롱면 정문로293번길 93",37.7878,126.812,15199,304
자유로,"경기 파주시 범벅골길 60-6, (다율동, 자유로자동차운전전문학원)",37.7443,126.738,18241,396
행운,"경기 포천시 신북면 중앙로 332-34",37.9151,127.215,9698,176
신진,"경기도 파주시 월롱면 정문로293번길 95",37.7896,126.812,9965,350
연천,"경기 연천군 연천읍 통현길 100",38.0622,127.083,10738,64
북부중앙,"경기 양주시 화합로 1221, (회정동)",37.8333,127.053,11057,160
시티,"경기 의정부시 신흥로 41, (호원동, 시티자동차운전확원)",37.7193,127.044,19970,56
대진,"경기 포천시 군내면 포천로909번길 31",37.8519,127.194,13514,112
NEW강동,"경기 남양주시 진접읍 진건오남로 1048",37.7123,127.184,7333,208
그린,"경기 포천시 소흘 223-38",37.8311,127.149,11635,364
신제일,"경기 포천시 영북면 문암길 20-1",38.0801,127.273,9746,84
스피드(일반),"경기 양주시 청담로 42번길 63-15",37.8048,127.074,3907,42
원주,"강원 원주시 학마을길 60, (관설동)",37.3004,127.98,11032,60
영동,"강원 강릉시 회산로408번길 4, (홍제동)",37.7439,128.871,6680,56
속초,"강원 속초시 하도문길 5, (도문동, 속초자동차운전전문학원)",38.1616,128.599,9309,56
중부,"강원 양구군 남면 지픈개길 43",38.0586,127.985,11005,98
동남,"강원 영월군 영월읍 중앙로 224-21",37.1725,128.476,10266,84
홍천,"강원 홍천군 북방면 홍천로 205-31",37.6931,127.871,10058,154
동해,"강원 동해시 새들길 20, (초구동, 동해자동차운전전문학원)",37.5769,129.092,9226,56
설악산,"강원 고성 토성 풍곡길 63, (설악산자동차운전전문학원)",38.2298,128.538,9585,126
치악산,"강원 원주시 북원로 2638, (태장동)",37.3792,127.944,9363,56
용봉,"강원 강릉시 성산면 경강로 1377-9",37.7223,128.833,18600,104
문막,"강원 원주시 문막읍 좁은목길 59",37.3175,127.836,13178,98
삼척,"강원 삼척시 오십천로 68, (등봉동, 삼척자동차운전학원)",37.4413,129.128,6700,56
성문,"강원 춘천시 영서로 2528, (근화동, 성문자동차운전학원)",37.8823,127.715,12160,272
동송,"강원 철원군 동송읍 상노로 519, (동송자동차운전전문학원)",38.1782,127.228,18982,168
신촌,"강원 춘천시 동내면 동내로 67-1",37.849,127.76,6817,56
흥업,"강원 원주시 흥업면 승안동길 43",37.3136,127.894,9986,156
신신,"강원 강릉시 경강로2408번길 64, (송정동)",37.7742,128.929,8504,56
추암,"강원 동해시 공단1로 80, (추암동, 추암자동차운전전문학원)",37.4741,129.148,16950,98
미래,"강원 평창군 진부면 간평길 79-28",37.6742,128.586,11330,98
강릉,"강원 강릉시 연곡면 동해대로 4100-28",37.8495,128.844,6879,56
매지,"강원 원주시 흥업면 북원로 1476-9",37.2815,127.911,9549,56
나래,"강원 홍천군 홍천읍 홍천로 753",37.7127,127.916,9270,56
신진,"강원 횡성군 횡성읍 입석로 114",37.4812,127.991,0,84
충북,"충북 청주시 상당구 사천로18번길 34, (사천동)",36.6787,127.481,10177,182
청주,"충북 청주시 흥덕구 죽천로79번길 4, (복대동)",36.6382,127.432,7528,196
금성,"충북 청주시 서원구 구룡산로 228, (산남동)",36.6149,127.47,12233,240
보은,"충북 보은군 수한면 정자말길 54-1, (사무소)",36.4804,127.686,8034,56
진천,"충북 진천군 진천읍 문화6길 41-1, (진천자동차운전면허학원)",36.8638,127.435,14728,144
음성한일,"충북 음성군 음성읍 중리길 42",36.9282,127.677,12474,132
조양,"충북 충주시 샘골길 26, (안림동, 조양자동차운전학원)",36.9675,127.95,19690,247
중앙,"충북 충주시 대소원면 완오신촌길 12",36.9662,127.851,11557,154
제천,"충북 제천시 강저로15길 14, (강제동)",37.1225,128.195,21629,182
(주)제천현대,"충북 제천시 내토로 959, (고암동)",37.1711,128.216,9564,70
단양,"충북 단양군 매포읍 안동길 77, (단양자동차학원)",37.0317,128.315,9372,128
옥천,"충북 옥천군 군서면 성왕로 854, (현대운전전문학원)",36.2988,127.541,8972,225
교원,"충북 청원군 강내면 석화사인길 109-5",36.6295,127.368,11485,448
상당,"충북 청주시 상당구 목련로 106-72 (운동동)",36.6086,127.527,9892,210
옥천동원,"충북 옥천군 군북면 옥천로 1074, (운전학원)",36.3326,127.53,14576,322
아주,"충북 청주시 서원구 남이면 양촌3길 13",36.5897,127.471,9995,154
대영,"충북 청원군 내수읍 구성길 17",36.6821,127.505,14576,648
(주)삼성,"충북 청주시 흥덕구 평동로 29, (향정동)",36.6538,127.425,6830,272
좋은,"충북 충주시 가금면 첨단산업로 1235",37.0691,127.865,8934,56
덕일,"충북 청원군 내수읍 은곡묵방길 22-27",36.7093,127.527,13275,108
반도,"충남 태안군 태안읍 서해로 2120",36.7585,126.339,9994,196
서산중앙,"충남 서산시 쌍연북3길 17, (동문동)",36.7854,126.468,9802,192
(주)당진,"충남 당진시 송악읍 광명길 27, (당진자동차운전전문학원)",36.8942,126.715,9143,196
(자)백제,"충남 부여군 부여읍 왕릉로 244-7",36.2721,126.96,18817,196
(주)건양,"충남 논산 은진 탑정로 332-22",36.1695,127.1,10510,192
천안,"충남 천안시 서북구 천안대로 962, (두정동, 천안자동차운전전문학원)",36.8277,127.154,21608,392
합덕,"충남 당진시 우강면 중방로 62-6",36.8176,126.763,11650,196
(주)서부,"충남 계룡시 엄사면 계백로 3080-10",36.2799,127.24,9740,200
제일,"충남 보령시 청소면 충서로 3660",36.431,126.588,12818,195
(유)서산,"충남 서산시 소탐1로 83, (수석동)",36.7582,126.494,17791,196
삼원,"충남 천안시 서북구 성거읍 석문길 10-3",36.8499,127.181,6817,195
(주)당진충남,"충남 당진시 원당로 141-10, (원당동)",36.9128,126.643,7982,196
(주)공주,"충남 공주시 소학길 17, (소학동)",36.4506,127.155,8324,192
(주)뉴보령현대,"충남 보령시 대해로 173, (내항동)",36.336,126.586,13554,192
예산,"충남 예산군 오가면 오신로 244",36.6962,126.786,10900,196
금산,"충남 금산군 금산읍 장자길 27, (금산자동차학원면허시험장)",36.0977,127.459,12808,196
장용,"충남 아산시 실옥로 196-7, (실옥동)",36.7966,126.981,16671,196
영일,"충남 천안시 서북구 성환읍 성환2로 8-15, (영일자동차학원)",36.9076,127.131,7470,126
우석,"충남 아산시 배방읍 배방로 194",36.7694,127.068,16841,368
서산현대,"충남 서산시 음암면 중앙로 734",36.7408,126.513,21136,192
중앙삼성,"충남 천안시 서북구 부대3길 7, (부대동, 중앙삼성자동차운전학원)",36.8444,127.155,6618,196
신홍성,"충남 홍성군 홍성읍 충서로1216번길 6-16",36.584,126.658,9717,196
보령동양,"충남 보령시 중앙로 187-66, (대천동)",36.3526,126.583,16165,390
(자)천안대성,"충남 천안시 동남구 풍세로 839, (용곡동, 대성자동차운전전문학원)",36.7845,127.144,10284,196
용화,"충남 아산시 시민로 215, (용화동, 용화자동차학원)",36.7687,126.993,8269,195
서해,"충남 서천군 종천면 종판로 62, (서해자동차운전학원)",36.1152,126.643,9934,196
(주)삼성,"충남 아산시 온천대로 1790-12, (남동)",36.7649,127.046,9413,192
신진,"전북 전주시 덕진구 추천로 201, (팔복동1가, 신진자동차운전학원)",35.8539,127.112,11330,56
한일,"전북 전주시 덕진구 비석날로 25, (여의동)",35.8535,127.077,7833,195
이리,"전북 익산시 익산대로33길 46-5, (신용동, 이리자동차학원)",35.9769,126.951,8377,84
(유)금강,"전북 군산시 공단대로 179, (수송동, 금강자동차학원)",35.9588,126.722,11513,224
군산,"전북 군산시 개사길 58-2, (개사동, 군산자동차학원)",35.9343,126.68,8079,128
정읍,"전북 정읍시 충정로 638, (용계동, 정읍자동차운전학원)",35.5871,126.819,9980,182
(유)남원,"전북 남원시 요천로 1798-6, (월락동, 남원자동차학원)",35.4229,127.409,18091,154
오성,"전북 군산시 개정면 아동북길 55",35.9796,126.77,9927,168
스마일,"전북 익산시 함열읍 용지길 17, (스마일자동차운전학원)",36.0399,126.952,15644,182
신삼천,"전북 전주시 완산구 우림로 1001, (삼천동2가, 금성자동차학원)",35.7851,127.101,14334,224
아시아,"전북 김제시 복죽로 538, (연정동, 아시아운전전문학원)",35.7994,126.864,14860,84
모양,"전북 고창군 아산면 봉덕길 4, (모양자동차전문학원)",35.4354,126.649,15547,126
동아,"전북 전주시 덕진구 추천로 209, (팔복동1가, 동아자동차운전전문학원)",35.8546,127.112,7249,180
벽성,"전북 김제시 백산면 옥석길 2 (벽성자동차학원)",35.8364,126.91,16044,84
구룡,"전북 정읍시 용북길 57-11, (구룡동, 구룡자동차학원)",35.5795,126.878,12384,96
길,"전북 익산시 신왕길 32, (석왕동, 길자동차운전학원)",35.9732,127.028,15718,182
(유)참길,"전북 부안군 부안읍 부령로 153-17, (참길자동차운전학원)",35.7354,126.758,12855,70
전북전주,"전북 전주시 덕진구 초포다리로 117-6, (호성동1가, 전북자동차운전전문학원)",35.8662,127.159,6723,56
전주,"전라북도 전주시 덕진구 한내로 21, (팔복동4가, 서신자동차운전전문학원)",35.8717,127.101,16290,84
(유)강남,"전북 익산시 부송로16길 40, (부송동, 주택)",35.9686,126.992,9412,104
동성,"전북 전주시 덕진구 장재길 4, (우아동3가, 동성자동차운전학원)",35.8468,127.166,9900,169
퍼스트,"전북 군산시 개정면 당산1길 20, (뉴퍼스트 운전학원)",35.9761,126.783,9912,96
우리,"전북 익산시 서동로46길 134-32, (석암동, 우리자동차운전학원)",35.9374,127.004,9725,96
가나안,"전북 익산시 무왕로 779-26, (현영동, 가나안자동차)",35.9621,126.941,13285,112
(유)남경,"전남 목포 옥암 20",34.8154,126.441,15290,364
무안,"전남 무안 망운 195",35.0158,126.393,8425,98
순천현대,"전남 순천 해룡 234-16",34.9222,127.41,21400,378
순천대우,"전남 순천 별량 대룡 1462",34.8859,127.395,9916,168
(주)영진,"전남 여수 만흥 231",34.7604,127.662,17539,140
담양아시아,"전남 담양 담양 운교 43",35.2251,126.985,9650,208
(유)강진,"전남 강진 성전 629-21",34.6915,126.708,12445,112
영광,"전남 영광 영광 3462",35.2772,126.512,13399,144
동성,"전남 여수 신월 496-12",34.7342,127.697,17868,98
고흥,"전남 고흥 고흥 남계리 56",34.6221,127.297,12185,150
여수아시아,"전남 여수 율촌 봉전 72-11",34.8079,127.537,15092,270
(유)상무,"전남 보성 벌교 210-27",34.8476,127.342,14664,260
쌍용,"전남 순천 조례 100",34.9506,127.487,16885,266
삼성,"전남 나주 산포 131",35.0343,126.806,8261,336
"화순 신세계","전남 화순 화순 65",35.0645,126.986,10224,224
(유)천관,"전남 장흥 장흥 3083",34.6817,126.907,13978,150
(유)호남,"전남 목포 연산 109번길39",34.8118,126.392,15971,238
목포,"전남 무안 청계 1743-27",34.915,126.43,9415,182
(주)동광양,"전남 광양 도이 89",34.9339,127.673,10569,168
새천년,"전남 나주시 왕곡면 덕산리 224-7",34.9668,126.697,9689,280
(주)여천,"전남 여수 소호 271",34.7604,127.662,14852,255
"영암 신세계","전남 영암 신북 23",34.8903,126.693,13859,344
나주,"전남 나주 다시 28",35.0167,126.641,9900,120
우양,"전남 담양 봉산 729",35.3211,126.988,7175,238
해남대흥,"전남 해남 북평 와룡 37",34.4241,126.658,17497,144
천일,"전남 곡성 곡성 277",35.282,127.292,11982,216
영주,"경북 영주시 필두길50번길 99, (상줄동)",36.8331,128.584,13038,168
경의,"경북 의성군 의성읍 북원3길 51-7",36.3615,128.698,7678,60
(김천)현대,"경북 김천시 시청로 114, (신음동, 김천현대자동차운전학원)",36.1387,128.118,14209,120
포항영남,"경북 포항시 북구 우창로 111, (우현동, 영남자동차학원)",36.0633,129.36,20133,216
천마,"경북 경주시 광중길 14, (용강동, 천마자동차운전전문학원)",35.8796,129.225,10678,255
(영천)현대,"경북 영천시 망정1길 80, (망정동)",35.9783,128.95,7890,192
대영,"경북 영주시 영봉로 35-15 (휴천동, 대영자동차운전학원)",36.819,128.641,11432,140
새한일,"경북 상주시 경상대로 2725, (가장동)",36.3765,128.142,9404,168
(경산)남부,"경북 경산시 중방로 124, (계양동, 경산남부자동차학원)",35.8325,128.747,8842,465
예천,"경북 예천군 예천읍 도효자로 62-15, (예천자동차전문학원)",36.6764,128.468,12957,64
(영천)성림,"경북 영천시 금호읍 금호로 338-40",35.9374,128.896,9106,512
봉화,"경북 봉화군 봉화읍 꽃동네길 18-6, (봉화자동차운전학원)",36.8897,128.734,9455,45
구미,"경북 구미시 고아읍 선산대로 468, (구미자동차운전학원)",36.1711,128.354,7343,144
안동새한,"경북 안동시 강남로 108, (수상동, 새한자동차운전학원)",36.5498,128.713,19466,351
경주,"경북 경주 안강 새안현로 1144",35.9686,129.137,11219,336
(주)진성,"경북 영덕군 영덕읍 남산길 22-6",36.4017,129.372,8056,28
하양,"경북 경산시 진량읍 금호강변로 860, (하양자동차운전학원)",35.9074,128.825,9208,160
쌍용,"경북 경산시 진량읍 대학로 1333, (쌍용자동차운전학원)",35.8979,128.823,10322,285
(김천)중앙,"경북 김천시 아포읍 송선로 140, (중앙자동차운전학원)",36.1475,128.286,13733,168
영강,"경북 문경시 산양면 과상2길 17, (영강자동차운전학원)",36.6346,128.274,11111,96
경주현대,"경북 경주시 현곡면 용담로 413-3, (경주현대자동차운전학원)",35.8806,129.183,13844,238
경주제일,"경북 경주시 천북면 산업로 4566-21, (경주제일자동차운전학원)",35.8844,129.236,16889,140
(영주)영남,"경북 영주시 조암로 89, (조암동, 영남자동차운전학원)",36.0633,129.36,9419,48
최신,"경북 구미시 고아읍 원대로9길 11, (최신자동차운전학원)",36.1685,128.32,9917,356
화성,"경북 안동시 앙실3길 19, (수하동, 화성자동차운전학원)",36.557,128.677,10213,96
(주)연화재,"경상북도 포항시 북구 흥해읍 새마을로 272-30",36.0496,129.332,9951,60
(청도)화양,"경북 청도군 화양읍 북문길 46, (화양자동차운전학원)",35.6523,128.705,8307,84
경산수성,"경북 경산시 임당로 106, (임당동, 수성자동차학원)",35.8498,128.744,13319,270
포항경북,"경북 포항시 남구 연일읍 연일로 143, (경북자동차운전학원)",35.9994,129.345,10499,228
영주제일,"경북 영주시 장수로 300, (문정동, 제일자동차운전학원)",36.7916,128.591,8259,112
(구미)인동,"경북 구미시 인동가산로 384-26, (구평동, 인동자동차운전학원)",36.0905,128.453,9927,228
(청송)문화,"경북 청송군 진보면 못안길 65",36.536,129.031,7808,48
(구미)남구미,"경북 구미시 오태1길 74, (오태동, 남구미자동차운전학원)",36.0786,128.355,8924,148
(칠곡)우리,"경북 칠곡군 북삼읍 경호천서길 72, (우리자동차운전학원)",36.0509,128.339,9181,105
(주)경포,"경북 포항시 남구 동해면 약전로115번길 69, (경포자동차운전학원)",35.9753,129.449,8233,80
(구미)공단,"경북 구미시 옥계2공단로 238, (구포동, 공단자동차운전학원)",36.126,128.416,12132,171
포항현대,"경북 포항시 남구 오천읍 철강로 862, (포항현대자동차운전학원)",35.9634,129.419,8730,105
왜관,"경북 칠곡군 약목면 무림4길 41, (왜관자동차운전학원)",36.023,128.383,11924,144
(울진)제일,"경북 울진 울진 연지 741-2",37.0005,129.414,8431,96
옥동현대,"경북 안동시 쉼텃길 62-9, (옥동, 옥동현대자동차운전학원)",36.5649,128.689,9445,96
(포항)흥해경북,"경북 포항시 북구 흥해읍 덕실마을길3번길 62, (흥해자동차운전학원)",36.1208,129.339,12745,108
함양,"경남 함양군 함양읍 함양남서로 996-11, (함양자동차학원)",35.5089,127.739,14578,165
창신,"경남 진주시 대신로196번길 20, (상평동, 창신자동차운전학원)",35.1772,128.12,8285,120
한려,"경남 통영시 광도면 남해안대로 1130-19",34.8935,128.418,8015,105
고성,"경남 고성군 고성읍 남해안대로 2305",34.9518,128.343,9709,70
삼천포,"경남 사천시 삼천포대교로 566 (좌룡동, 삼천포자동차학원(주))",34.9483,128.078,7917,140
거창,"경남 거창군 거창읍 죽전4길 119-22, (거창자동차운전학원)",35.6963,127.911,9093,112
밀양,"경남 밀양시 부북면 청운로 200",35.5145,128.716,13969,126
거창현대,"경남 거창군 거창읍 새동네2길 53",35.689,127.93,11087,96
거제,"경남 거제시 제산로2길 11, (양정동, 거제자동차운전학원)",34.8879,128.641,18507,336
남해,"경남 남해군 이동면 남해대로 1607, (남해자동차운전전문학원)",34.7702,127.952,9583,98
동창원,"경남 창원시 의창구 동읍 동읍로 234-1",35.296,128.674,14762,576
창녕,"경남 창녕군 창녕읍 탐하로 254, (창녕자동차전문학원)",35.5333,128.496,9982,70
도원성,"경남 진주시 남강로 155-26, (평거동, 도원성자동차운전학원)",35.1631,128.05,11131,168
서부경남,"경남 진주시 금곡면 정자천로15번길 15, (서부경남자동차운전전)",35.1379,128.171,10919,196
한일,"경남 김해시 분성로3번길 235-34, (내동, 한일자동차운전학원)",35.2477,128.863,12271,256
사천,"경남 사천시 용현면 공단4로 28-36, (사천자동차전문학원)",35.0499,128.046,14275,180
옥포,"경남 거제시 옥포대첩로 272-13 (덕포동)",34.9126,128.706,8745,108
밀양현대,"경남 밀양시 용평로 79 (용평동)",35.4937,128.776,9999,140
마창,"경남 창원시 의창구 팔용로 315, (반계동, 마창자동차운전학원)",35.2484,128.606,9997,594
풍원,"경남 양산시 용주로 21, (용당동, 풍원자동차학원)",35.4285,129.181,23288,112
하동,"경남 하동군 하동읍 화심길 116, (하동자동차운전전문학원)",35.0882,127.733,7875,135
한백,"경남 창원시 마산합포구 진동면 삼진의거대로 830, (한백자동차운전학원)",35.1281,128.501,26471,320
신세계,"경남 통영시 광도면 남해안대로 1160-60",34.8951,128.417,12670,154
국제,"경남 양산시 덕계북길 25, (덕계동, 국제자동차운전전문학원)",35.3829,129.157,12828,221
김해(2),"경남 김해시 김해대로 2569, (어방동, 김해자동차운전전문학원)",35.2289,128.909,9869,238
장유(2),"경남 김해시 주촌면 금관대로 751, (장유자동차운전전문학원)",35.2067,128.832,32016,608
창원,"경남 창원시 마산합포구 가포신항남로 43 (가포동)",35.1565,128.586,9850,270
남양산,"경남 양산시 동면 남양산2길 26, (남양산자동차운전전문학원)",35.3269,129.031,10444,180
부림,"경남 창원시 마산합포구 진북면 진북산업로 142 (부림자동차운전학원)",35.1288,128.487,12049,288
정오,"경남 진주시 대신로 642-34, (장재동, 정오자동차학원)",35.217,128.109,11040,182
부성,"경남 창원시 진해구 어은로 32 (죽곡동)",35.1137,128.728,8786,182
대성,"경남 양산시 상북면 양산대로 1266, (대성자동차학원)",35.3815,129.05,15805,132
제주,"제주자치도 제주 오등13길 38",33.4782,126.53,16325,192
제일,"제주 서귀포 상예 1728-1",33.2541,126.56,8898,140
삼다,"제주자치도 제주시 서회천길 88 (회천동)",33.485,126.629,7383,192
현대,"제주자치도 제주시 애월읍 평화로 2032-20",33.4033,126.385,10839,396
원영,"제주자치도 서귀포시 남원읍 태위로398번길 31",33.2725,126.69,11155,135
한라,"제주 제주 아라2 1320",33.5012,126.528,9003,252
탐라,"제주시 오라이동 1998-1",33.4896,126.509,8545,260
경일,"서귀포시 대정읍 암반수마농로21",33.2548,126.239,3244,120
